start=new Date('2022-04-29T00:00:00.000Z').valueOf();
sats=[{"TLE_LINE1":"1 48582U 21041AF  22118.91668981 -.00010784  00000-0 -70603-3 0  9998","EPHEMERIS_TYPE":"0","MEAN_ANOMALY":"161.9861","OBJECT_TYPE":"PAYLOAD","COUNTRY_CODE":"US","TIME_SYSTEM":"UTC","PERIAPSIS":"546.097","FILE":"3420325","ELEMENT_SET_NO":"999","ECCENTRICITY":"0.00015910","GP_ID":"202227306","ARG_OF_PERICENTER":"65.4666","BSTAR":"-0.00070603000000","MEAN_MOTION_DDOT":"0.0000000000000","CENTER_NAME":"EARTH","REF_FRAME":"TEME","CLASSIFICATION_TYPE":"U","MEAN_MOTION_DOT":"-0.00010784","NORAD_CAT_ID":"48582","SEMIMAJOR_AXIS":"6925.334","PERIOD":"95.592","REV_AT_EPOCH":"5350","RA_OF_ASC_NODE":"309.8173","INCLINATION":"53.0538","MEAN_ELEMENT_THEORY":"SGP4","LAUNCH_DATE":"2021-05-15","TLE_LINE2":"2 48582  53.0538 309.8173 0001591  65.4666 161.9861 15.06404802 53508","OBJECT_NAME":"STARLINK-2236","OBJECT_ID":"2021-041AF","APOAPSIS":"548.301","MEAN_MOTION":"15.06404802","SITE":"AFETR","DECAY_DATE":null,"EPOCH":"2022-04-28T22:00:01.999584","RCS_SIZE":"LARGE"},{"TLE_LINE2":"2 48583  53.0545 357.3077 0001597  76.7387 283.3780 15.06407705 52344","OBJECT_NAME":"STARLINK-2237","LAUNCH_DATE":"2021-05-15","MEAN_ELEMENT_THEORY":"SGP4","EPOCH":"2022-04-28T08:45:16.757856","SITE":"AFETR","DECAY_DATE":null,"RCS_SIZE":"LARGE","MEAN_MOTION":"15.06407705","APOAPSIS":"548.296","OBJECT_ID":"2021-041AG","MEAN_MOTION_DDOT":"0.0000000000000","BSTAR":"0.00040935000000","CLASSIFICATION_TYPE":"U","REF_FRAME":"TEME","CENTER_NAME":"EARTH","GP_ID":"202216910","ELEMENT_SET_NO":"999","ECCENTRICITY":"0.00015970","ARG_OF_PERICENTER":"76.7387","INCLINATION":"53.0545","RA_OF_ASC_NODE":"357.3077","REV_AT_EPOCH":"5234","NORAD_CAT_ID":"48583","MEAN_MOTION_DOT":"0.00005822","PERIOD":"95.592","SEMIMAJOR_AXIS":"6925.325","FILE":"3420061","PERIAPSIS":"546.084","TIME_SYSTEM":"UTC","OBJECT_TYPE":"PAYLOAD","MEAN_ANOMALY":"283.3780","COUNTRY_CODE":"US","TLE_LINE1":"1 48583U 21041AG  22118.36477729  .00005822  00000-0  40935-3 0  9996","EPHEMERIS_TYPE":"0"},{"EPOCH":"2022-04-28T01:45:58.009248","SITE":"AFETR","DECAY_DATE":null,"RCS_SIZE":"LARGE","OBJECT_ID":"2021-041AH","APOAPSIS":"548.354","MEAN_MOTION":"15.06403659","TLE_LINE2":"2 48584  53.0557 358.6162 0001663  62.3040 297.8118 15.06403659 52695","OBJECT_NAME":"STARLINK-2238","LAUNCH_DATE":"2021-05-15","MEAN_ELEMENT_THEORY":"SGP4","REV_AT_EPOCH":"5269","RA_OF_ASC_NODE":"358.6162","INCLINATION":"53.0557","NORAD_CAT_ID":"48584","MEAN_MOTION_DOT":"0.00004723","PERIOD":"95.592","SEMIMAJOR_AXIS":"6925.337","MEAN_MOTION_DDOT":"0.0000000000000","BSTAR":"0.00033571000000","CLASSIFICATION_TYPE":"U","CENTER_NAME":"EARTH","REF_FRAME":"TEME","GP_ID":"202227029","ELEMENT_SET_NO":"999","ECCENTRICITY":"0.00016630","ARG_OF_PERICENTER":"62.3040","FILE":"3420385","PERIAPSIS":"546.051","TIME_SYSTEM":"UTC","OBJECT_TYPE":"PAYLOAD","MEAN_ANOMALY":"297.8118","COUNTRY_CODE":"US","EPHEMERIS_TYPE":"0","TLE_LINE1":"1 48584U 21041AH  22118.07358807  .00004723  00000-0  33571-3 0  9997"},{"TIME_SYSTEM":"UTC","PERIAPSIS":"546.217","FILE":"3420061","OBJECT_TYPE":"PAYLOAD","MEAN_ANOMALY":"265.1807","COUNTRY_CODE":"US","EPHEMERIS_TYPE":"0","TLE_LINE1":"1 48585U 21041AJ  22118.48272292  .00002129  00000-0  16171-3 0  9991","SITE":"AFETR","DECAY_DATE":null,"EPOCH":"2022-04-28T11:35:07.260288","RCS_SIZE":"LARGE","MEAN_MOTION":"15.06410581","APOAPSIS":"548.145","OBJECT_ID":"2021-041AJ","TLE_LINE2":"2 48585  53.0546 356.7876 0001392  94.9341 265.1807 15.06410581 52357","OBJECT_NAME":"STARLINK-2240","MEAN_ELEMENT_THEORY":"SGP4","LAUNCH_DATE":"2021-05-15","INCLINATION":"53.0546","RA_OF_ASC_NODE":"356.7876","REV_AT_EPOCH":"5235","MEAN_MOTION_DOT":"0.00002129","NORAD_CAT_ID":"48585","SEMIMAJOR_AXIS":"6925.316","PERIOD":"95.591","BSTAR":"0.00016171000000","MEAN_MOTION_DDOT":"0.0000000000000","REF_FRAME":"TEME","CENTER_NAME":"EARTH","CLASSIFICATION_TYPE":"U","ELEMENT_SET_NO":"999","ECCENTRICITY":"0.00013920","GP_ID":"202217908","ARG_OF_PERICENTER":"94.9341"},{"TLE_LINE1":"1 48586U 21041AK  22118.47534846  .00000927  00000-0  81117-4 0  9994","EPHEMERIS_TYPE":"0","FILE":"3420061","TIME_SYSTEM":"UTC","PERIAPSIS":"546.283","COUNTRY_CODE":"US","MEAN_ANOMALY":"280.5152","OBJECT_TYPE":"PAYLOAD","CLASSIFICATION_TYPE":"U","CENTER_NAME":"EARTH","REF_FRAME":"TEME","MEAN_MOTION_DDOT":"0.0000000000000","BSTAR":"0.00008111700000","ARG_OF_PERICENTER":"79.5985","GP_ID":"202218160","ECCENTRICITY":"0.00013160","ELEMENT_SET_NO":"999","INCLINATION":"53.0560","RA_OF_ASC_NODE":"356.8144","REV_AT_EPOCH":"5235","PERIOD":"95.592","SEMIMAJOR_AXIS":"6925.329","NORAD_CAT_ID":"48586","MEAN_MOTION_DOT":"0.00000927","OBJECT_NAME":"STARLINK-2241","TLE_LINE2":"2 48586  53.0560 356.8144 0001316  79.5985 280.5152 15.06406337 52350","LAUNCH_DATE":"2021-05-15","MEAN_ELEMENT_THEORY":"SGP4","RCS_SIZE":"LARGE","EPOCH":"2022-04-28T11:24:30.106944","SITE":"AFETR","DECAY_DATE":null,"APOAPSIS":"548.106","OBJECT_ID":"2021-041AK","MEAN_MOTION":"15.06406337"},{"EPHEMERIS_TYPE":"0","TLE_LINE1":"1 48587U 21041AL  22118.08095983  .00001206  00000-0  99845-4 0  9994","PERIAPSIS":"546.213","TIME_SYSTEM":"UTC","FILE":"3420061","MEAN_ANOMALY":"254.4390","OBJECT_TYPE":"PAYLOAD","COUNTRY_CODE":"US","INCLINATION":"53.0601","RA_OF_ASC_NODE":"358.5624","REV_AT_EPOCH":"5229","MEAN_MOTION_DOT":"0.00001206","NORAD_CAT_ID":"48587","SEMIMAJOR_AXIS":"6925.343","PERIOD":"95.592","BSTAR":"0.00009984500000","MEAN_MOTION_DDOT":"0.0000000000000","CENTER_NAME":"EARTH","REF_FRAME":"TEME","CLASSIFICATION_TYPE":"U","ECCENTRICITY":"0.00014360","ELEMENT_SET_NO":"999","GP_ID":"202216410","ARG_OF_PERICENTER":"105.6758","DECAY_DATE":null,"SITE":"AFETR","EPOCH":"2022-04-28T01:56:34.929312","RCS_SIZE":"LARGE","APOAPSIS":"548.202","MEAN_MOTION":"15.06401888","OBJECT_ID":"2021-041AL","TLE_LINE2":"2 48587  53.0601 358.5624 0001436 105.6758 254.4390 15.06401888 52294","OBJECT_NAME":"STARLINK-2242","MEAN_ELEMENT_THEORY":"SGP4","LAUNCH_DATE":"2021-05-15"},{"COUNTRY_CODE":"US","MEAN_ANOMALY":"282.1504","OBJECT_TYPE":"PAYLOAD","TIME_SYSTEM":"UTC","PERIAPSIS":"546.274","FILE":"3420061","TLE_LINE1":"1 48588U 21041AM  22118.32515940  .00006199  00000-0  43454-3 0  9992","EPHEMERIS_TYPE":"0","MEAN_ELEMENT_THEORY":"SGP4","LAUNCH_DATE":"2021-05-15","OBJECT_NAME":"STARLINK-2244","TLE_LINE2":"2 48588  53.0553 347.4836 0001304  77.9631 282.1504 15.06412067 52474","MEAN_MOTION":"15.06412067","APOAPSIS":"548.080","OBJECT_ID":"2021-041AM","RCS_SIZE":"LARGE","DECAY_DATE":null,"SITE":"AFETR","EPOCH":"2022-04-28T07:48:13.772160","ARG_OF_PERICENTER":"77.9631","ELEMENT_SET_NO":"999","ECCENTRICITY":"0.00013040","GP_ID":"202217161","REF_FRAME":"TEME","CENTER_NAME":"EARTH","CLASSIFICATION_TYPE":"U","BSTAR":"0.00043454000000","MEAN_MOTION_DDOT":"0.0000000000000","SEMIMAJOR_AXIS":"6925.312","PERIOD":"95.591","MEAN_MOTION_DOT":"0.00006199","NORAD_CAT_ID":"48588","REV_AT_EPOCH":"5247","INCLINATION":"53.0553","RA_OF_ASC_NODE":"347.4836"},{"TLE_LINE1":"1 48589U 21041AN  22118.78588919  .00008604  00000-0  59550-3 0  9996","EPHEMERIS_TYPE":"0","PERIAPSIS":"546.294","TIME_SYSTEM":"UTC","FILE":"3420345","COUNTRY_CODE":"US","MEAN_ANOMALY":"280.7408","OBJECT_TYPE":"PAYLOAD","REF_FRAME":"TEME","CENTER_NAME":"EARTH","CLASSIFICATION_TYPE":"U","BSTAR":"0.00059550000000","MEAN_MOTION_DDOT":"0.0000000000000","ARG_OF_PERICENTER":"79.3721","ECCENTRICITY":"0.00012450","ELEMENT_SET_NO":"999","GP_ID":"202227580","REV_AT_EPOCH":"5299","RA_OF_ASC_NODE":"345.4164","INCLINATION":"53.0552","SEMIMAJOR_AXIS":"6925.292","PERIOD":"95.591","MEAN_MOTION_DOT":"0.00008604","NORAD_CAT_ID":"48589","OBJECT_NAME":"STARLINK-2245","TLE_LINE2":"2 48589  53.0552 345.4164 0001245  79.3721 280.7408 15.06418566 52990","MEAN_ELEMENT_THEORY":"SGP4","LAUNCH_DATE":"2021-05-15","RCS_SIZE":"LARGE","SITE":"AFETR","DECAY_DATE":null,"EPOCH":"2022-04-28T18:51:40.826016","OBJECT_ID":"2021-041AN","APOAPSIS":"548.019","MEAN_MOTION":"15.06418566"},{"DECAY_DATE":null,"SITE":"AFETR","EPOCH":"2022-04-28T18:29:05.332704","RCS_SIZE":"LARGE","APOAPSIS":"548.200","OBJECT_ID":"2021-041AQ","MEAN_MOTION":"15.06419106","TLE_LINE2":"2 48591  53.0589 345.4735 0001509  74.5406 285.5749 15.06419106 52944","OBJECT_NAME":"STARLINK-2248","MEAN_ELEMENT_THEORY":"SGP4","LAUNCH_DATE":"2021-05-15","INCLINATION":"53.0589","RA_OF_ASC_NODE":"345.4735","REV_AT_EPOCH":"5294","MEAN_MOTION_DOT":"0.00009707","NORAD_CAT_ID":"48591","SEMIMAJOR_AXIS":"6925.290","PERIOD":"95.591","BSTAR":"0.00066935000000","MEAN_MOTION_DDOT":"0.0000000000000","CENTER_NAME":"EARTH","REF_FRAME":"TEME","CLASSIFICATION_TYPE":"U","ELEMENT_SET_NO":"999","ECCENTRICITY":"0.00015090","GP_ID":"202227571","ARG_OF_PERICENTER":"74.5406","TIME_SYSTEM":"UTC","PERIAPSIS":"546.110","FILE":"3420345","MEAN_ANOMALY":"285.5749","OBJECT_TYPE":"PAYLOAD","COUNTRY_CODE":"US","EPHEMERIS_TYPE":"0","TLE_LINE1":"1 48591U 21041AQ  22118.77020061  .00009707  00000-0  66935-3 0  9997"},{"ARG_OF_PERICENTER":"80.5617","ECCENTRICITY":"0.00015270","ELEMENT_SET_NO":"999","GP_ID":"202216911","CENTER_NAME":"EARTH","REF_FRAME":"TEME","CLASSIFICATION_TYPE":"U","BSTAR":"0.00023316000000","MEAN_MOTION_DDOT":"0.0000000000000","SEMIMAJOR_AXIS":"6925.337","PERIOD":"95.592","MEAN_MOTION_DOT":"0.00003193","NORAD_CAT_ID":"48592","INCLINATION":"53.0554","REV_AT_EPOCH":"5234","RA_OF_ASC_NODE":"357.2470","MEAN_ELEMENT_THEORY":"SGP4","LAUNCH_DATE":"2021-05-15","OBJECT_NAME":"STARLINK-2249","TLE_LINE2":"2 48592  53.0554 357.2470 0001527  80.5617 279.5545 15.06403717 52347","APOAPSIS":"548.260","OBJECT_ID":"2021-041AR","MEAN_MOTION":"15.06403717","RCS_SIZE":"LARGE","SITE":"AFETR","DECAY_DATE":null,"EPOCH":"2022-04-28T09:06:30.653280","TLE_LINE1":"1 48592U 21041AR  22118.37952145  .00003193  00000-0  23316-3 0  9990","EPHEMERIS_TYPE":"0","COUNTRY_CODE":"US","OBJECT_TYPE":"PAYLOAD","MEAN_ANOMALY":"279.5545","TIME_SYSTEM":"UTC","PERIAPSIS":"546.145","FILE":"3420061"}];
